{
  "norad_id": 61561,
  "name": "QIANFAN-28",
  "history": [
    {
      "epoch": "2026-03-28T21:06:59.053824Z",
      "apogee_km": 801.3893612377733,
      "perigee_km": 793.7255760313828,
      "latitude_deg": 3.5734635911987943e-06,
      "longitude_deg": -78.55891334541516,
      "height_km": 797.875823414881,
      "semi_major_axis_km": 7175.694468634578,
      "eccentricity": 0.00053401,
      "inclination_deg": 88.9792,
      "raan_deg": 64.4811,
      "arg_perigee_deg": 315.8709,
      "mean_anomaly_deg": 44.2059,
      "mean_motion_rev_day": 14.2825862
    },
    {
      "epoch": "2026-03-29T03:50:31.809696Z",
      "apogee_km": 801.3611660432971,
      "perigee_km": 793.7448886482716,
      "latitude_deg": -6.461599525548908e-05,
      "longitude_deg": -179.7545146942972,
      "height_km": 797.9442118127304,
      "semi_major_axis_km": 7175.690027345784,
      "eccentricity": 0.0005307,
      "inclination_deg": 88.9793,
      "raan_deg": 64.4482,
      "arg_perigee_deg": 314.6799,
      "mean_anomaly_deg": 45.3962,
      "mean_motion_rev_day": 14.28259946
    },
    {
      "epoch": "2026-03-30T05:03:49.617216Z",
      "apogee_km": 801.2677767960558,
      "perigee_km": 793.8225759971137,
      "latitude_deg": 1.6956532706223546e-05,
      "longitude_deg": 160.76217457385752,
      "height_km": 798.2131777129454,
      "semi_major_axis_km": 7175.6821763965845,
      "eccentricity": 0.00051878,
      "inclination_deg": 88.9794,
      "raan_deg": 64.3249,
      "arg_perigee_deg": 310.166,
      "mean_anomaly_deg": 49.908,
      "mean_motion_rev_day": 14.2826229
    },
    {
      "epoch": "2026-03-30T11:47:22.319520Z",
      "apogee_km": 801.2392963871916,
      "perigee_km": 793.8454763474792,
      "latitude_deg": -1.3138861788057074e-05,
      "longitude_deg": 59.566798000610945,
      "height_km": 798.2865281426016,
      "semi_major_axis_km": 7175.679386367336,
      "eccentricity": 0.0005152,
      "inclination_deg": 88.9795,
      "raan_deg": 64.292,
      "arg_perigee_deg": 308.9695,
      "mean_anomaly_deg": 51.104,
      "mean_motion_rev_day": 14.28263123
    },
    {
      "epoch": "2026-03-30T21:52:41.365632Z",
      "apogee_km": 801.2052972856027,
      "perigee_km": 793.8721872175647,
      "latitude_deg": 6.406609024320654e-05,
      "longitude_deg": -92.22618400762076,
      "height_km": 798.3945412883523,
      "semi_major_axis_km": 7175.675742251583,
      "eccentricity": 0.00051097,
      "inclination_deg": 88.9795,
      "raan_deg": 64.2427,
      "arg_perigee_deg": 307.1341,
      "mean_anomaly_deg": 52.9387,
      "mean_motion_rev_day": 14.28264211
    },
    {
      "epoch": "2026-03-31T21:25:05.726496Z",
      "apogee_km": 801.1362221192321,
      "perigee_km": 793.9246763327601,
      "latitude_deg": 3.887771072980243e-05,
      "longitude_deg": -86.40954426362474,
      "height_km": 798.6523474642223,
      "semi_major_axis_km": 7175.667449225995,
      "eccentricity": 0.0005025,
      "inclination_deg": 88.9797,
      "raan_deg": 64.1276,
      "arg_perigee_deg": 302.6916,
      "mean_anomaly_deg": 57.3794,
      "mean_motion_rev_day": 14.28266687
    },
    {
      "epoch": "2026-04-01T20:57:29.949120Z",
      "apogee_km": 801.0697035799712,
      "perigee_km": 793.9787151728651,
      "latitude_deg": -1.1432634518948751e-05,
      "longitude_deg": -80.59212751463463,
      "height_km": 798.9204330680474,
      "semi_major_axis_km": 7175.661209376418,
      "eccentricity": 0.0004941,
      "inclination_deg": 88.98,
      "raan_deg": 64.0127,
      "arg_perigee_deg": 298.1627,
      "mean_anomaly_deg": 61.9068,
      "mean_motion_rev_day": 14.2826855
    },
    {
      "epoch": "2026-04-02T20:29:53.909088Z",
      "apogee_km": 801.0033280424077,
      "perigee_km": 794.0156834750996,
      "latitude_deg": 7.638206360529108e-05,
      "longitude_deg": -74.77371139821707,
      "height_km": 799.1778724106939,
      "semi_major_axis_km": 7175.646505758753,
      "eccentricity": 0.0004869,
      "inclination_deg": 88.9801,
      "raan_deg": 63.8977,
      "arg_perigee_deg": 293.6474,
      "mean_anomaly_deg": 66.421,
      "mean_motion_rev_day": 14.2827294
    }
  ]
}